{
  "type": "FeatureCollection",
  "features": [
    {
      "type": "Feature",
      "properties": {
        "norad_id": 34350,
        "name": "IRIDIUM 33 DEB",
        "group": "iridium-33-debris",
        "lat": 63.77642188969826,
        "lon": 171.46448384678573,
        "alt_km": 718.0794151667069,
        "timestamp": "2025-12-21T14:40:48.303335+00:00",
        "meta_object_name": "IRIDIUM 33 DEB",
        "meta_object_id": "1997-051ES",
        "meta_epoch": "2025-12-21T01:05:51.116928",
        "meta_mean_motion": 14.4540434,
        "meta_eccentricity": 0.00233834,
        "meta_inclination": 86.3272,
        "meta_ra_of_asc_node": 359.2028,
        "meta_arg_of_pericenter": 109.7302,
        "meta_mean_anomaly": 303.2035,
        "meta_ephemeris_type": 0,
        "meta_classification_type": "U",
        "meta_norad_cat_id": 34350,
        "meta_element_set_no": 999,
        "meta_rev_at_epoch": 88413,
        "meta_bstar": 0.00022992834,
        "meta_mean_motion_dot": 8.32e-06,
        "meta_mean_motion_ddot": 0,
        "tle_line1": "1 34350U 97051ES  25355.04573052  .00000832  00000+0  22993-3 0  9993",
        "tle_line2": "2 34350  86.3272 359.2028 0023383 109.7302 303.2035 14.45404340884134"
      },
      "geometry": {
        "type": "Point",
        "coordinates": [
          171.46448384678573,
          63.77642188969826
        ]
      }
    },
    {
      "type": "Feature",
      "properties": {
        "norad_id": 34366,
        "name": "IRIDIUM 33 DEB",
        "group": "iridium-33-debris",
        "lat": 0.8122294462884584,
        "lon": 45.50633885019192,
        "alt_km": 721.0073432747213,
        "timestamp": "2025-12-21T14:40:48.303345+00:00",
        "meta_object_name": "IRIDIUM 33 DEB",
        "meta_object_id": "1997-051FJ",
        "meta_epoch": "2025-12-21T03:14:39.196032",
        "meta_mean_motion": 14.54116771,
        "meta_eccentricity": 0.00229982,
        "meta_inclination": 86.369,
        "meta_ra_of_asc_node": 45.662,
        "meta_arg_of_pericenter": 113.5249,
        "meta_mean_anomaly": 274.8967,
        "meta_ephemeris_type": 0,
        "meta_classification_type": "U",
        "meta_norad_cat_id": 34366,
        "meta_element_set_no": 999,
        "meta_rev_at_epoch": 88304,
        "meta_bstar": 0.00059167018,
        "meta_mean_motion_dot": 2.529e-05,
        "meta_mean_motion_ddot": 0,
        "tle_line1": "1 34366U 97051FJ  25355.13517588  .00002529  00000+0  59167-3 0  9990",
        "tle_line2": "2 34366  86.3690  45.6620 0022998 113.5249 274.8967 14.54116771883047"
      },
      "geometry": {
        "type": "Point",
        "coordinates": [
          45.50633885019192,
          0.8122294462884584
        ]
      }
    },
    {
      "type": "Feature",
      "properties": {
        "norad_id": 34375,
        "name": "IRIDIUM 33 DEB",
        "group": "iridium-33-debris",
        "lat": -26.41528679140354,
        "lon": 0.9001558969291937,
        "alt_km": 859.5101164906255,
        "timestamp": "2025-12-21T14:40:48.303356+00:00",
        "meta_object_name": "IRIDIUM 33 DEB",
        "meta_object_id": "1997-051FT",
        "meta_epoch": "2025-12-21T00:46:06.767328",
        "meta_mean_motion": 14.18006296,
        "meta_eccentricity": 0.01037011,
        "meta_inclination": 86.4323,
        "meta_ra_of_asc_node": 179.3579,
        "meta_arg_of_pericenter": 100.8025,
        "meta_mean_anomaly": 27.2657,
        "meta_ephemeris_type": 0,
        "meta_classification_type": "U",
        "meta_norad_cat_id": 34375,
        "meta_element_set_no": 999,
        "meta_rev_at_epoch": 86829,
        "meta_bstar": 0.00030848,
        "meta_mean_motion_dot": 6.86e-06,
        "meta_mean_motion_ddot": 0,
        "tle_line1": "1 34375U 97051FT  25355.03202277  .00000686  00000+0  30848-3 0  9992",
        "tle_line2": "2 34375  86.4323 179.3579 0103701 100.8025  27.2657 14.18006296868298"
      },
      "geometry": {
        "type": "Point",
        "coordinates": [
          0.9001558969291937,
          -26.41528679140354
        ]
      }
    },
    {
      "type": "Feature",
      "properties": {
        "norad_id": 34376,
        "name": "IRIDIUM 33 DEB",
        "group": "iridium-33-debris",
        "lat": -21.23838708057663,
        "lon": -176.0071527813284,
        "alt_km": 681.1378256846028,
        "timestamp": "2025-12-21T14:40:48.303367+00:00",
        "meta_object_name": "IRIDIUM 33 DEB",
        "meta_object_id": "1997-051FU",
        "meta_epoch": "2025-12-21T00:37:48.894240",
        "meta_mean_motion": 14.62669201,
        "meta_eccentricity": 0.00281091,
        "meta_inclination": 86.2976,
        "meta_ra_of_asc_node": 2.814,
        "meta_arg_of_pericenter": 139.3438,
        "meta_mean_anomaly": 220.9879,
        "meta_ephemeris_type": 0,
        "meta_classification_type": "U",
        "meta_norad_cat_id": 34376,
        "meta_element_set_no": 999,
        "meta_rev_at_epoch": 88128,
        "meta_bstar": 0.00089599733,
        "meta_mean_motion_dot": 4.606e-05,
        "meta_mean_motion_ddot": 0,
        "tle_line1": "1 34376U 97051FU  25355.02626035  .00004606  00000+0  89600-3 0  9990",
        "tle_line2": "2 34376  86.2976   2.8140 0028109 139.3438 220.9879 14.62669201881280"
      },
      "geometry": {
        "type": "Point",
        "coordinates": [
          -176.0071527813284,
          -21.23838708057663
        ]
      }
    },
    {
      "type": "Feature",
      "properties": {
        "norad_id": 34486,
        "name": "IRIDIUM 33 DEB",
        "group": "iridium-33-debris",
        "lat": 41.27342584150772,
        "lon": 11.102693164719309,
        "alt_km": 568.798046433476,
        "timestamp": "2025-12-21T14:40:48.303378+00:00",
        "meta_object_name": "IRIDIUM 33 DEB",
        "meta_object_id": "1997-051GB",
        "meta_epoch": "2025-12-21T01:57:25.087968",
        "meta_mean_motion": 14.96136248,
        "meta_eccentricity": 0.00139205,
        "meta_inclination": 86.3926,
        "meta_ra_of_asc_node": 8.1733,
        "meta_arg_of_pericenter": 88.5923,
        "meta_mean_anomaly": 339.5471,
        "meta_ephemeris_type": 0,
        "meta_classification_type": "U",
        "meta_norad_cat_id": 34486,
        "meta_element_set_no": 999,
        "meta_rev_at_epoch": 89111,
        "meta_bstar": 0.0013204908,
        "meta_mean_motion_dot": 0.00014928,
        "meta_mean_motion_ddot": 0,
        "tle_line1": "1 34486U 97051GB  25355.08154037  .00014928  00000+0  13205-2 0  9991",
        "tle_line2": "2 34486  86.3926   8.1733 0013920  88.5923 339.5471 14.96136248891119"
      },
      "geometry": {
        "type": "Point",
        "coordinates": [
          11.102693164719309,
          41.27342584150772
        ]
      }
    },
    {
      "type": "Feature",
      "properties": {
        "norad_id": 34487,
        "name": "IRIDIUM 33 DEB",
        "group": "iridium-33-debris",
        "lat": 5.595994028395269,
        "lon": -171.80160644627523,
        "alt_km": 743.4121409585505,
        "timestamp": "2025-12-21T14:40:48.303388+00:00",
        "meta_object_name": "IRIDIUM 33 DEB",
        "meta_object_id": "1997-051GC",
        "meta_epoch": "2025-12-21T00:51:13.870080",
        "meta_mean_motion": 14.43225793,
        "meta_eccentricity": 0.00332106,
        "meta_inclination": 86.343,
        "meta_ra_of_asc_node": 8.8054,
        "meta_arg_of_pericenter": 102.5675,
        "meta_mean_anomaly": 320.0917,
        "meta_ephemeris_type": 0,
        "meta_classification_type": "U",
        "meta_norad_cat_id": 34487,
        "meta_element_set_no": 999,
        "meta_rev_at_epoch": 88368,
        "meta_bstar": 0.00013015301,
        "meta_mean_motion_dot": 4.61e-06,
        "meta_mean_motion_ddot": 0,
        "tle_line1": "1 34487U 97051GC  25355.03557720  .00000461  00000+0  13015-3 0  9990",
        "tle_line2": "2 34487  86.3430   8.8054 0033210 102.5675 320.0917 14.43225793883687"
      },
      "geometry": {
        "type": "Point",
        "coordinates": [
          -171.80160644627523,
          5.595994028395269
        ]
      }
    },
    {
      "type": "Feature",
      "properties": {
        "norad_id": 34488,
        "name": "IRIDIUM 33 DEB",
        "group": "iridium-33-debris",
        "lat": 45.22818274742731,
        "lon": -54.87423710232447,
        "alt_km": 460.39774438139193,
        "timestamp": "2025-12-21T14:40:48.303398+00:00",
        "meta_object_name": "IRIDIUM 33 DEB",
        "meta_object_id": "1997-051GD",
        "meta_epoch": "2025-12-20T21:13:54.490080",
        "meta_mean_motion": 15.31302202,
        "meta_eccentricity": 0.0010948,
        "meta_inclination": 86.3254,
        "meta_ra_of_asc_node": 301.7725,
        "meta_arg_of_pericenter": 38.0894,
        "meta_mean_anomaly": 322.1127,
        "meta_ephemeris_type": 0,
        "meta_classification_type": "U",
        "meta_norad_cat_id": 34488,
        "meta_element_set_no": 999,
        "meta_rev_at_epoch": 89364,
        "meta_bstar": 0.0030791,
        "meta_mean_motion_dot": 0.00094223,
        "meta_mean_motion_ddot": 0,
        "tle_line1": "1 34488U 97051GD  25354.88465845  .00094223  00000+0  30791-2 0  9997",
        "tle_line2": "2 34488  86.3254 301.7725 0010948  38.0894 322.1127 15.31302202893643"
      },
      "geometry": {
        "type": "Point",
        "coordinates": [
          -54.87423710232447,
          45.22818274742731
        ]
      }
    }
  ]
}